ONEWEB-0340             
1 49206U 21083W   25328.19169573  .00000083  00000+0  17875-3 0  9997
2 49206  87.9200  16.1670 0001784  99.0191 261.1144 13.18684312202953
ONEWEB-0341             
1 49207U 21083X   25328.12241447  .00000088  00000+0  18955-3 0  9997
2 49207  87.9201  16.1925 0001626  84.0319 276.0999 13.18684817202963
ONEWEB-0342             
1 49208U 21083Y   25328.42873124  .00000036  00000+0  57475-4 0  9998
2 49208  87.9191 315.2695 0001991  85.2606 274.8755 13.20774598209755
ONEWEB-0343             
1 49209U 21083Z   25328.43415800 -.00001206  00000+0 -30922-2 0  9991
2 49209  87.9204  16.1221 0001948  76.2489 283.8860 13.18691100203052
ONEWEB-0344             
1 49210U 21083AA  25328.12594270 -.00000250  00000+0 -71992-3 0  9999
2 49210  87.8983   1.0258 0001606  81.5192 278.6119 13.13469499203970
ONEWEB-0345             
1 49211U 21083AB  25328.11748362 -.00000179  00000+0 -52491-3 0  9995
2 49211  87.8994   0.9859 0001663  84.1365 275.9954 13.13470085203983
ONEWEB-0346             
1 49212U 21083AC  25328.20324370  .00000052  00000+0  99635-4 0  9995
2 49212  87.9199  16.1850 0001519 118.5654 241.5631 13.18685469202962
ONEWEB-0348             
1 49213U 21083AD  25328.41926319  .00000068  00000+0  13582-3 0  9993
2 49213  87.9179 315.2789 0001279  80.3550 279.7728 13.20774150209785
